GLOBALSTAR M057         
1 25943U 99058A   25019.42655934 -.00000047  00000+0  42161-3 0  9997
2 25943  51.9996  50.3814 0002666  80.0699 280.0452 12.24807845148709
GLOBALSTAR M059         
1 25944U 99058B   25019.82697285 -.00000091  00000+0 -58563-4 0  9991
2 25944  51.9995 248.5358 0001298  63.7479  17.8793 11.99972503556237
GLOBALSTAR M056         
1 25945U 99058C   25019.83758882 -.00000091  00000+0 -42120-4 0  9996
2 25945  51.9944 254.2734 0000120  33.9057  47.7566 12.04777368144746
GLOBALSTAR M031         
1 25946U 99058D   25019.82140059 -.00000148  00000+0 -58691-3 0  9999
2 25946  51.9946 155.5296 0001139 187.3945 328.7342 12.16026818146494
GLOBALSTAR M039         
1 25961U 99062A   25019.85987440 -.00000067  00000+0  20577-3 0  9998
2 25961  51.9867   0.4896 0002879  24.5189 335.5814 12.62315971161489
GLOBALSTAR M034         
1 25962U 99062B   25019.56783924  .00000021  00000+0  16248-2 0  9996
2 25962  51.9888  37.7112 0014329 120.9716 353.7521 11.79440482120853
GLOBALSTAR M029         
1 25963U 99062C   25019.75948188 -.00000070  00000+0  20537-3 0  9995
2 25963  51.9797 136.8795 0003083 168.1005 345.5305 11.99890389151301
GLOBALSTAR M061         
1 25964U 99062D   25019.92024378 -.00000086  00000+0 -10163-3 0  9993
2 25964  51.9756 218.8635 0007043  52.7391  87.6061 11.76770470103726
